CTC2_L_00175001-01
1 79729U 23404KB  26070.40843750  .00000000  00000+0  00000-0 0  9992
2 79729  95.0000   0.0000 0000000   0.0000   0.0000 14.89338871    13
CTC2_L_00175001-02
1 79730U 24356UJ  26070.40843750  .00000000  00000+0  00000-0 0  9991
2 79730  95.0000   0.0000 0000000   0.0000  90.0000 14.89338871    14
CTC2_L_00175001-03
1 79731U 25769DX  26070.40843750  .00000000  00000+0  00000-0 0  9991
2 79731  95.0000   0.0000 0000000   0.0000 180.0000 14.89338871    15
CTC2_L_00175001-04
1 79732U 26605TP  26070.40843750  .00000000  00000+0  00000-0 0  9992
2 79732  95.0000   0.0000 0000000   0.0000 270.0000 14.89338871    16
CTC2_L_00175002-01
1 79733U 23205UY  26070.40843750  .00000000  00000+0  00000-0 0  9996
2 79733  95.0000  12.0000 0000000   0.0000  12.0000 14.89338871    14
CTC2_L_00175002-02
1 79734U 23137DK  26070.40843750  .00000000  00000+0  00000-0 0  9991
2 79734  95.0000  12.0000 0000000   0.0000 102.0000 14.89338871    15
CTC2_L_00175002-03
1 79735U 23724XD  26070.40843750  .00000000  00000+0  00000-0 0  9994
2 79735  95.0000  12.0000 0000000   0.0000 192.0000 14.89338871    15
CTC2_L_00175002-04
1 79736U 22473BD  26070.40843750  .00000000  00000+0  00000-0 0  9995
2 79736  95.0000  12.0000 0000000   0.0000 282.0000 14.89338871    16
CTC2_L_00175003-01
1 79737U 23899EC  26070.40843750  .00000000  00000+0  00000-0 0  9999
2 79737  95.0000  24.0000 0000000   0.0000  24.0000 14.89338871    14
CTC2_L_00175003-02
1 79738U 25666DU  26070.40843750  .00000000  00000+0  00000-0 0  9994
2 79738  95.0000  24.0000 0000000   0.0000 114.0000 14.89338871    15
CTC2_L_00175003-03
1 79739U 24656CG  26070.40843750  .00000000  00000+0  00000-0 0  9993
2 79739  95.0000  24.0000 0000000   0.0000 204.0000 14.89338871    16
CTC2_L_00175003-04
1 79740U 25986YV  26070.40843750  .00000000  00000+0  00000-0 0  9992
2 79740  95.0000  24.0000 0000000   0.0000 294.0000 14.89338871    17
CTC2_L_00175004-01
1 79741U 24385AF  26070.40843750  .00000000  00000+0  00000-0 0  9995
2 79741  95.0000  36.0000 0000000   0.0000  36.0000 14.89338871    15
CTC2_L_00175004-02
1 79742U 26921YK  26070.40843750  .00000000  00000+0  00000-0 0  9994
2 79742  95.0000  36.0000 0000000   0.0000 126.0000 14.89338871    16
CTC2_L_00175004-03
1 79743U 22854BJ  26070.40843750  .00000000  00000+0  00000-0 0  9996
2 79743  95.0000  36.0000 0000000   0.0000 216.0000 14.89338871    17
CTC2_L_00175004-04
1 79744U 25763FB  26070.40843750  .00000000  00000+0  00000-0 0  9999
2 79744  95.0000  36.0000 0000000   0.0000 306.0000 14.89338871    18
CTC2_L_00175005-01
1 79745U 22814AW  26070.40843750  .00000000  00000+0  00000-0 0  9994
2 79745  95.0000  48.0000 0000000   0.0000  48.0000 14.89338871    15
CTC2_L_00175005-02
1 79746U 24279RK  26070.40843750  .00000000  00000+0  00000-0 0  9992
2 79746  95.0000  48.0000 0000000   0.0000 138.0000 14.89338871    16
CTC2_L_00175005-03
1 79747U 22437JJ  26070.40843750  .00000000  00000+0  00000-0 0  9997
2 79747  95.0000  48.0000 0000000   0.0000 228.0000 14.89338871    17
CTC2_L_00175005-04
1 79748U 24457BO  26070.40843750  .00000000  00000+0  00000-0 0  9992
2 79748  95.0000  48.0000 0000000   0.0000 318.0000 14.89338871    18
CTC2_L_00175006-01
1 79749U 26112HG  26070.40843750  .00000000  00000+0  00000-0 0  9993
2 79749  95.0000  60.0000 0000000   0.0000  60.0000 14.89338871    17
CTC2_L_00175006-02
1 79750U 23575NK  26070.40843750  .00000000  00000+0  00000-0 0  9995
2 79750  95.0000  60.0000 0000000   0.0000 150.0000 14.89338871    19
CTC2_L_00175006-03
1 79751U 26555FS  26070.40843750  .00000000  00000+0  00000-0 0  9997
2 79751  95.0000  60.0000 0000000   0.0000 240.0000 14.89338871    10
CTC2_L_00175006-04
1 79752U 24072ZN  26070.40843750  .00000000  00000+0  00000-0 0  9990
2 79752  95.0000  60.0000 0000000   0.0000 330.0000 14.89338871    11
CTC2_L_00175007-01
1 79753U 25789AW  26070.40843750  .00000000  00000+0  00000-0 0  9997
2 79753  95.0000  72.0000 0000000   0.0000  72.0000 14.89338871    18
CTC2_L_00175007-02
1 79754U 24296FW  26070.40843750  .00000000  00000+0  00000-0 0  9990
2 79754  95.0000  72.0000 0000000   0.0000 162.0000 14.89338871    19
CTC2_L_00175007-03
1 79755U 26038CY  26070.40843750  .00000000  00000+0  00000-0 0  9997
2 79755  95.0000  72.0000 0000000   0.0000 252.0000 14.89338871    10
CTC2_L_00175007-04
1 79756U 25523TT  26070.40843750  .00000000  00000+0  00000-0 0  9996
2 79756  95.0000  72.0000 0000000   0.0000 342.0000 14.89338871    11
CTC2_L_00175008-01
1 79757U 22273WZ  26070.40843750  .00000000  00000+0  00000-0 0  9996
2 79757  95.0000  84.0000 0000000   0.0000  84.0000 14.89338871    18
CTC2_L_00175008-02
1 79758U 22157HR  26070.40843750  .00000000  00000+0  00000-0 0  9998
2 79758  95.0000  84.0000 0000000   0.0000 174.0000 14.89338871    19
CTC2_L_00175008-03
1 79759U 23412XL  26070.40843750  .00000000  00000+0  00000-0 0  9994
2 79759  95.0000  84.0000 0000000   0.0000 264.0000 14.89338871    10
CTC2_L_00175008-04
1 79760U 25710BW  26070.40843750  .00000000  00000+0  00000-0 0  9999
2 79760  95.0000  84.0000 0000000   0.0000 354.0000 14.89338871    12
CTC2_L_00175009-01
1 79761U 22643FU  26070.40843750  .00000000  00000+0  00000-0 0  9992
2 79761  95.0000  96.0000 0000000   0.0000  96.0000 14.89338871    19
CTC2_L_00175009-02
1 79762U 26770GS  26070.40843750  .00000000  00000+0  00000-0 0  9998
2 79762  95.0000  96.0000 0000000   0.0000 186.0000 14.89338871    10
CTC2_L_00175009-03
1 79763U 22270QN  26070.40843750  .00000000  00000+0  00000-0 0  9990
2 79763  95.0000  96.0000 0000000   0.0000 276.0000 14.89338871    11
CTC2_L_00175009-04
1 79764U 25969PP  26070.40843750  .00000000  00000+0  00000-0 0  9999
2 79764  95.0000  96.0000 0000000   0.0000   6.0000 14.89338871    13
CTC2_L_00175010-01
1 79765U 23567EE  26070.40843750  .00000000  00000+0  00000-0 0  9992
2 79765  95.0000 108.0000 0000000   0.0000 108.0000 14.89338871    11
CTC2_L_00175010-02
1 79766U 24070OV  26070.40843750  .00000000  00000+0  00000-0 0  9993
2 79766  95.0000 108.0000 0000000   0.0000 198.0000 14.89338871    11
CTC2_L_00175010-03
1 79767U 26782NX  26070.40843750  .00000000  00000+0  00000-0 0  9996
2 79767  95.0000 108.0000 0000000   0.0000 288.0000 14.89338871    12
CTC2_L_00175010-04
1 79768U 26510XQ  26070.40843750  .00000000  00000+0  00000-0 0  9996
2 79768  95.0000 108.0000 0000000   0.0000  18.0000 14.89338871    14
CTC2_L_00175011-01
1 79769U 23862WJ  26070.40843750  .00000000  00000+0  00000-0 0  9994
2 79769  95.0000 120.0000 0000000   0.0000 120.0000 14.89338871    13
CTC2_L_00175011-02
1 79770U 22836LD  26070.40843750  .00000000  00000+0  00000-0 0  9996
2 79770  95.0000 120.0000 0000000   0.0000 210.0000 14.89338871    15
CTC2_L_00175011-03
1 79771U 23008VV  26070.40843750  .00000000  00000+0  00000-0 0  9999
2 79771  95.0000 120.0000 0000000   0.0000 300.0000 14.89338871    16
CTC2_L_00175011-04
1 79772U 25678VC  26070.40843750  .00000000  00000+0  00000-0 0  9995
2 79772  95.0000 120.0000 0000000   0.0000  30.0000 14.89338871    17
CTC2_L_00175012-01
1 79773U 24517VQ  26070.40843750  .00000000  00000+0  00000-0 0  9997
2 79773  95.0000 132.0000 0000000   0.0000 132.0000 14.89338871    14
CTC2_L_00175012-02
1 79774U 23635HO  26070.40843750  .00000000  00000+0  00000-0 0  9998
2 79774  95.0000 132.0000 0000000   0.0000 222.0000 14.89338871    15
CTC2_L_00175012-03
1 79775U 23667DY  26070.40843750  .00000000  00000+0  00000-0 0  9994
2 79775  95.0000 132.0000 0000000   0.0000 312.0000 14.89338871    16
CTC2_L_00175012-04
1 79776U 23011JX  26070.40843750  .00000000  00000+0  00000-0 0  9998
2 79776  95.0000 132.0000 0000000   0.0000  42.0000 14.89338871    17
CTC2_L_00175013-01
1 79777U 23865WP  26070.40843750  .00000000  00000+0  00000-0 0  9996
2 79777  95.0000 144.0000 0000000   0.0000 144.0000 14.89338871    14
CTC2_L_00175013-02
1 79778U 25404OZ  26070.40843750  .00000000  00000+0  00000-0 0  9998
2 79778  95.0000 144.0000 0000000   0.0000 234.0000 14.89338871    15
CTC2_L_00175013-03
1 79779U 22031XS  26070.40843750  .00000000  00000+0  00000-0 0  9992
2 79779  95.0000 144.0000 0000000   0.0000 324.0000 14.89338871    16
CTC2_L_00175013-04
1 79780U 24153BL  26070.40843750  .00000000  00000+0  00000-0 0  9991
2 79780  95.0000 144.0000 0000000   0.0000  54.0000 14.89338871    18
CTC2_L_00175014-01
1 79781U 23654WF  26070.40843750  .00000000  00000+0  00000-0 0  9997
2 79781  95.0000 156.0000 0000000   0.0000 156.0000 14.89338871    15
CTC2_L_00175014-02
1 79782U 26572KR  26070.40843750  .00000000  00000+0  00000-0 0  9990
2 79782  95.0000 156.0000 0000000   0.0000 246.0000 14.89338871    16
CTC2_L_00175014-03
1 79783U 23986NM  26070.40843750  .00000000  00000+0  00000-0 0  9997
2 79783  95.0000 156.0000 0000000   0.0000 336.0000 14.89338871    17
CTC2_L_00175014-04
1 79784U 25051TX  26070.40843750  .00000000  00000+0  00000-0 0  9993
2 79784  95.0000 156.0000 0000000   0.0000  66.0000 14.89338871    18
CTC2_L_00175015-01
1 79785U 25585MI  26070.40843750  .00000000  00000+0  00000-0 0  9996
2 79785  95.0000 168.0000 0000000   0.0000 168.0000 14.89338871    15
CTC2_L_00175015-02
1 79786U 24632ZP  26070.40843750  .00000000  00000+0  00000-0 0  9999
2 79786  95.0000 168.0000 0000000   0.0000 258.0000 14.89338871    16
CTC2_L_00175015-03
1 79787U 23724PH  26070.40843750  .00000000  00000+0  00000-0 0  9991
2 79787  95.0000 168.0000 0000000   0.0000 348.0000 14.89338871    17
CTC2_L_00175015-04
1 79788U 24913XH  26070.40843750  .00000000  00000+0  00000-0 0  9993
2 79788  95.0000 168.0000 0000000   0.0000  78.0000 14.89338871    18
CTC2_L_00175016-01
1 79789U 26083OE  26070.40843750  .00000000  00000+0  00000-0 0  9994
2 79789  95.0000 180.0000 0000000   0.0000 180.0000 14.89338871    17
CTC2_L_00175016-02
1 79790U 22092CA  26070.40843750  .00000000  00000+0  00000-0 0  9992
2 79790  95.0000 180.0000 0000000   0.0000 270.0000 14.89338871    19
